NORAD_CAT_ID,OBJECT_NAME,OBJECT_TYPE,EPOCH,MEAN_MOTION,ECCENTRICITY,INCLINATION,RA_OF_ASC_NODE,ARG_OF_PERICENTER,MEAN_ANOMALY,BSTAR,MEAN_MOTION_DOT,MEAN_MOTION_DDOT,TLE_LINE0,TLE_LINE1,TLE_LINE2,SEMIMAJOR_AXIS,PERIOD,APOGEE,PERIGEE,DECAYED
49430.0,STARLINK-3138,PAYLOAD,2022-03-19 14:00:01,15.08870683,0.000189,53.2168,263.3802,56.7795,143.5404,-0.0029229,-0.00046546,0.0,0 STARLINK-3138,1 49430U 21104Y   22078.58334491 -.00046546  00000-0 -29229-2 0  9997,2 49430  53.2168 263.3802 0001890  56.7795 143.5404 15.08870683 20647,6917.7869999999975,95.436,540.9590000000002,538.344,0.0
49430.0,STARLINK-3138,PAYLOAD,2022-03-19 22:00:01,15.08807868,0.0001983,53.2167,261.8853,49.0629,162.9389,0.0019652,0.00031099,0.0,0 STARLINK-3138,1 49430U 21104Y   22078.91668981  .00031099  00000-0  19652-2 0  9992,2 49430  53.2167 261.8853 0001983  49.0629 162.9389 15.08807868  3619,6917.979,95.44,541.215,538.472,0.0
49430.0,STARLINK-3138,PAYLOAD,2022-03-20 14:00:01,15.08844295,0.0001854,53.2166,258.8911,56.5303,178.5558,-0.00094041,-0.00015226,0.0,0 STARLINK-3138,1 49430U 21104Y   22079.58334491 -.00015226  00000-0 -94041-3 0  9994,2 49430  53.2166 258.8911 0001854  56.5303 178.5558 15.08844295 20792,6917.8669999999975,95.437,541.015,538.45,0.0
49430.0,STARLINK-3138,PAYLOAD,2022-03-20 22:00:01,15.08814587,0.0002006,53.2165,257.3961,50.07100000000001,196.6799,0.0029456,0.00046871,0.0,0 STARLINK-3138,1 49430U 21104Y   22079.91668981  .00046871  00000-0  29456-2 0  9990,2 49430  53.2165 257.3961 0002006  50.0710 196.6799 15.08814587  3601,6917.958000000001,95.439,541.211,538.435,0.0
49430.0,STARLINK-3138,PAYLOAD,2022-03-21 14:00:01,15.08860582,0.0001894,53.2165,254.4019,56.4313,213.4325,-0.0011326,-0.00018279,0.0,0 STARLINK-3138,1 49430U 21104Y   22080.58334491 -.00018279  00000-0 -11326-2 0  9991,2 49430  53.2165 254.4019 0001894  56.4313 213.4325 15.08860582 20941,6917.816999999999,95.436,540.993,538.372,0.0
49430.0,STARLINK-3138,PAYLOAD,2022-03-21 22:00:00,15.08830547,0.0001986,53.2165,252.9069,49.1776,232.3013,0.00023441,3.444e-05,0.0,0 STARLINK-3138,1 49430U 21104Y   22080.91667824  .00003444  00000-0  23441-3 0  9995,2 49430  53.2165 252.9069 0001986  49.1776 232.3013 15.08830547  3597,6917.909000000002,95.438,541.148,538.4,0.0
49430.0,STARLINK-3138,PAYLOAD,2022-03-22 14:00:01,15.08846441,0.0001884,53.2168,249.9128,54.0201,250.6192,-0.0012362,-0.00019912,0.0,0 STARLINK-3138,1 49430U 21104Y   22081.58334491 -.00019912  00000-0 -12362-2 0  9998,2 49430  53.2168 249.9128 0001884  54.0201 250.6192 15.08846441  3611,6917.861,95.437,541.029,538.422,0.0
49430.0,STARLINK-3138,PAYLOAD,2022-03-22 20:00:01,15.0881995,0.0002042,53.2169,248.7919,49.2405,174.1005,0.0019239,0.00030447,0.0,0 STARLINK-3138,1 49430U 21104Y   22081.83334491  .00030447  00000-0  19239-2 0  9990,2 49430  53.2169 248.7919 0002042  49.2405 174.1005 15.08819950 21131,6917.941999999999,95.439,541.219,538.394,0.0
49430.0,STARLINK-3138,PAYLOAD,2022-03-22 22:00:01,15.088157,0.0002025,53.2168,248.4178,48.1218,268.1793,0.0030274,0.00048191,0.0,0 STARLINK-3138,1 49430U 21104Y   22081.91668981  .00048191  00000-0  30274-2 0  9990,2 49430  53.2168 248.4178 0002025  48.1218 268.1793 15.08815700  3604,6917.955,95.439,541.221,538.419,0.0
49430.0,STARLINK-3138,PAYLOAD,2022-03-23 14:00:01,15.08871039,0.0001938,53.2171,245.4239,52.8594,286.5622,-0.0020399,-0.00032635,0.0,0 STARLINK-3138,1 49430U 21104Y   22082.58334491 -.00032635  00000-0 -20399-2 0  9995,2 49430  53.2171 245.4239 0001938  52.8594 286.5622 15.08871039  3617,6917.786,95.436,540.991,538.31,0.0
49430.0,STARLINK-3138,PAYLOAD,2022-03-23 22:00:00,15.0882785,0.0002019,53.217,243.9287,46.4387,304.6058,0.0011568,0.00018164,0.0,0 STARLINK-3138,1 49430U 21104Y   22082.91667824  .00018164  00000-0  11568-2 0  9998,2 49430  53.2170 243.9287 0002019  46.4387 304.6058 15.08827850 21293,6917.918000000002,95.438,541.179,538.386,0.0
49430.0,STARLINK-3138,PAYLOAD,2022-03-24 14:00:01,15.08873065,0.0001884,53.2174,240.935,49.752,324.4721,-0.0040567,-0.00064333,0.0,0 STARLINK-3138,1 49430U 21104Y   22083.58334491 -.00064333  00000-0 -40567-2 0  9995,2 49430  53.2174 240.9350 0001884  49.7520 324.4721 15.08873065  3598,6917.779,95.435,540.948,538.341,0.0
49430.0,STARLINK-3138,PAYLOAD,2022-03-24 22:00:00,15.08810337,0.0001948,53.2171,239.4397,43.2687,342.57,0.0026002,0.00041304,0.0,0 STARLINK-3138,1 49430U 21104Y   22083.91667824  .00041304  00000-0  26002-2 0  9990,2 49430  53.2171 239.4397 0001948  43.2687 342.5700 15.08810337  3617,6917.971,95.439,541.184,538.488,0.0
49430.0,STARLINK-3138,PAYLOAD,2022-03-25 00:00:02,15.08834602,0.0001934,53.2169,239.0651,44.1625,74.627,-9.3057e-05,-1.769e-05,0.0,0 STARLINK-3138,1 49430U 21104Y   22084.00002315 -.00001769  00000-0 -93057-4 0  9998,2 49430  53.2169 239.0651 0001934  44.1625  74.6270 15.08834602 21469,6917.897,95.438,541.1,538.424,0.0
49430.0,STARLINK-3138,PAYLOAD,2022-03-25 14:00:01,15.08857232,0.0001838,53.2173,236.4463,48.1087,0.89,-0.0018626,-0.00029823,0.0,0 STARLINK-3138,1 49430U 21104Y   22084.58334491 -.00029823  00000-0 -18626-2 0  9992,2 49430  53.2173 236.4463 0001838  48.1087   0.8900 15.08857232  3594,6917.828,95.436,540.964,538.4209999999998,0.0
49430.0,STARLINK-3138,PAYLOAD,2022-03-25 22:00:01,15.08832497,0.0001894,53.2169,234.9507,41.9109,18.7558,-0.0003674,-6.129e-05,0.0,0 STARLINK-3138,1 49430U 21104Y   22084.91668981 -.00006129  00000-0 -36740-3 0  9995,2 49430  53.2169 234.9507 0001894  41.9109  18.7558 15.08832497  3648,6917.903,95.438,541.0790000000002,538.4580000000002,0.0
49430.0,STARLINK-3138,PAYLOAD,2022-03-26 06:00:00,15.08807556,0.000165,53.2169,233.4527,46.7612,25.4465,0.003052,0.00048576,0.0,0 STARLINK-3138,1 49430U 21104Y   22085.25001157  .00048576  00000-0  30520-2 0  9998,2 49430  53.2169 233.4527 0001650  46.7612  25.4465 15.08807556 21657,6917.98,95.44,540.986,538.703,0.0
49430.0,STARLINK-3138,PAYLOAD,2022-03-26 14:00:01,15.08851244,0.0001764999999999,53.2169,231.9575,46.3353,37.4421,-0.0016413,-0.00026323,0.0,0 STARLINK-3138,1 49430U 21104Y   22085.58334491 -.00026323  00000-0 -16413-2 0  9997,2 49430  53.2169 231.9575 0001765  46.3353  37.4421 15.08851244  3577,6917.846,95.437,540.932,538.49,0.0
49430.0,STARLINK-3138,PAYLOAD,2022-03-26 22:00:00,15.08833149,0.000185,53.2164,230.4617,41.2384,54.1362,0.0015933,0.00025156,0.0,0 STARLINK-3138,1 49430U 21104Y   22085.91667824  .00025156  00000-0  15933-2 0  9990,2 49430  53.2164 230.4617 0001850  41.2384  54.1362 15.08833149 21750,6917.901,95.438,541.0459999999998,538.487,0.0
49430.0,STARLINK-3138,PAYLOAD,2022-03-27 14:00:01,15.08848129,0.0001696999999999,53.2165,227.4685,43.7903,74.7895,-0.0013011,-0.0002094,0.0,0 STARLINK-3138,1 49430U 21104Y   22086.58334491 -.00020940  00000-0 -13011-2 0  9998,2 49430  53.2165 227.4685 0001697  43.7903  74.7895 15.08848129 21859,6917.856,95.437,540.895,538.547,0.0
49430.0,STARLINK-3138,PAYLOAD,2022-03-27 22:00:01,15.08842585,0.0001801,53.216,225.9725,39.559,90.6796,0.0014949,0.00023585,0.0,0 STARLINK-3138,1 49430U 21104Y   22086.91668981  .00023585  00000-0  14949-2 0  9996,2 49430  53.2160 225.9725 0001801  39.5590  90.6796 15.08842585  3569,6917.871999999999,95.437,540.9830000000002,538.492,0.0
49430.0,STARLINK-3138,PAYLOAD,2022-03-28 06:00:00,15.08840627,0.0001654,53.216,224.4745,46.3008,95.4904,0.00043009,6.564e-05,0.0,0 STARLINK-3138,1 49430U 21104Y   22087.25001157  .00006564  00000-0  43009-3 0  9998,2 49430  53.2160 224.4745 0001654  46.3008  95.4904 15.08840627 21953,6917.878000000002,95.438,540.888,538.599,0.0
49430.0,STARLINK-3138,PAYLOAD,2022-03-28 14:00:01,15.08858886,0.0001825,53.2162,222.9794,45.6918,107.76,-0.0017434,-0.00027942,0.0,0 STARLINK-3138,1 49430U 21104Y   22087.58335648 -.00027942  00000-0 -17434-2 0  9996,2 49430  53.2162 222.9794 0001825  45.6918 107.7600 15.08858886  3602,6917.823,95.436,540.95,538.425,0.0
49430.0,STARLINK-3138,PAYLOAD,2022-03-28 22:00:00,15.08844824,0.0001885,53.2159,221.4833,41.1126,123.8802,-0.0018026,-0.00028866,0.0,0 STARLINK-3138,1 49430U 21104Y   22087.91667824 -.00028866  00000-0 -18026-2 0  9991,2 49430  53.2159 221.4833 0001885  41.1126 123.8802 15.08844824  3569,6917.866,95.437,541.035,538.427,0.0
49430.0,STARLINK-3138,PAYLOAD,2022-03-29 06:00:02,15.08795547,0.0001743,53.2161,219.9852,47.1494,129.5036,0.0025772,0.00040917,0.0,0 STARLINK-3138,1 49430U 21104Y   22088.25002315  .00040917  00000-0  25772-2 0  9992,2 49430  53.2161 219.9852 0001743  47.1494 129.5036 15.08795547 22102,6918.016,95.44,541.087,538.675,0.0
49430.0,STARLINK-3138,PAYLOAD,2022-03-29 14:00:01,15.0882785,0.0001916,53.2163,218.4904,45.2999,142.8487,-0.00040787,-6.771e-05,0.0,0 STARLINK-3138,1 49430U 21104Y   22088.58334491 -.00006771  00000-0 -40787-3 0  9997,2 49430  53.2163 218.4904 0001916  45.2999 142.8487 15.08827850  3567,6917.918000000002,95.438,541.1080000000002,538.457,0.0
49430.0,STARLINK-3138,PAYLOAD,2022-03-29 22:00:00,15.08850426,0.0001949,53.2163,216.9941,41.1241,158.5981,-0.002263,-0.00036135,0.0,0 STARLINK-3138,1 49430U 21104Y   22088.91667824 -.00036135  00000-0 -22630-2 0  9996,2 49430  53.2163 216.9941 0001949  41.1241 158.5981 15.08850426 22202,6917.849,95.437,541.062,538.365,0.0
49430.0,STARLINK-3138,PAYLOAD,2022-03-30 12:00:00,15.08848392,0.0001888,53.217,214.3749,43.3006,86.693,-0.00072733,-0.00011848,0.0,0 STARLINK-3138,1 49430U 21104Y   22089.50001157 -.00011848  00000-0 -72733-3 0  9997,2 49430  53.2170 214.3749 0001888  43.3006  86.6930 15.08848392 22296,6917.855,95.437,541.026,538.414,0.0
49430.0,STARLINK-3138,PAYLOAD,2022-03-30 14:00:01,15.08839798,0.0001948,53.2169,214.0013,41.6591,181.2967,-0.00011508,-2.119e-05,0.0,0 STARLINK-3138,1 49430U 21104Y   22089.58335648 -.00002119  00000-0 -11508-3 0  9994,2 49430  53.2169 214.0013 0001948  41.6591 181.2967 15.08839798  3563,6917.880999999999,95.438,541.094,538.398,0.0
